{
  "type": "FeatureCollection",
  "features": [
    {
      "type": "Feature",
      "properties": {
        "norad_id": 66898,
        "name": "STARLINK-36065",
        "group": "last-30-days",
        "lat": 18.255595803479185,
        "lon": -166.66879870318476,
        "alt_km": 345.01574593825535,
        "timestamp": "2025-12-21T22:41:40.166476+00:00",
        "meta_object_name": "STARLINK-36065",
        "meta_object_id": "2025-283W",
        "meta_epoch": "2025-12-21T14:00:01.999872",
        "meta_mean_motion": 15.74182811,
        "meta_eccentricity": 0.00011234,
        "meta_inclination": 53.1574,
        "meta_ra_of_asc_node": 29.449,
        "meta_arg_of_pericenter": 79.9237,
        "meta_mean_anomaly": 182.8518,
        "meta_ephemeris_type": 0,
        "meta_classification_type": "U",
        "meta_norad_cat_id": 66898,
        "meta_element_set_no": 999,
        "meta_rev_at_epoch": 385,
        "meta_bstar": 2.871805e-05,
        "meta_mean_motion_dot": 3.577e-05,
        "meta_mean_motion_ddot": 0,
        "tle_line1": "1 66898U 25283W   25355.58335648  .00003577  00000+0  28718-4 0  9990",
        "tle_line2": "2 66898  53.1574  29.4490 0001123  79.9237 182.8518 15.74182811  3853"
      },
      "geometry": {
        "type": "Point",
        "coordinates": [
          -166.66879870318476,
          18.255595803479185
        ]
      }
    },
    {
      "type": "Feature",
      "properties": {
        "norad_id": 66899,
        "name": "STARLINK-36064",
        "group": "last-30-days",
        "lat": 16.767857870917112,
        "lon": -165.4103214957462,
        "alt_km": 345.15073929061145,
        "timestamp": "2025-12-21T22:41:40.166486+00:00",
        "meta_object_name": "STARLINK-36064",
        "meta_object_id": "2025-283X",
        "meta_epoch": "2025-12-21T14:00:01.999872",
        "meta_mean_motion": 15.74187582,
        "meta_eccentricity": 0.0001123,
        "meta_inclination": 53.1571,
        "meta_ra_of_asc_node": 29.4451,
        "meta_arg_of_pericenter": 90.1542,
        "meta_mean_anomaly": 174.5321,
        "meta_ephemeris_type": 0,
        "meta_classification_type": "U",
        "meta_norad_cat_id": 66899,
        "meta_element_set_no": 999,
        "meta_rev_at_epoch": 379,
        "meta_bstar": -3.1836019e-05,
        "meta_mean_motion_dot": -5.288e-05,
        "meta_mean_motion_ddot": 0,
        "tle_line1": "1 66899U 25283X   25355.58335648 -.00005288  00000+0 -31836-4 0  9999",
        "tle_line2": "2 66899  53.1571  29.4451 0001123  90.1542 174.5321 15.74187582  3795"
      },
      "geometry": {
        "type": "Point",
        "coordinates": [
          -165.4103214957462,
          16.767857870917112
        ]
      }
    },
    {
      "type": "Feature",
      "properties": {
        "norad_id": 66900,
        "name": "STARLINK-36074",
        "group": "last-30-days",
        "lat": 15.269165576958002,
        "lon": -164.1688792457235,
        "alt_km": 345.61950503787193,
        "timestamp": "2025-12-21T22:41:40.166496+00:00",
        "meta_object_name": "STARLINK-36074",
        "meta_object_id": "2025-283Y",
        "meta_epoch": "2025-12-21T14:00:01.999872",
        "meta_mean_motion": 15.74198399,
        "meta_eccentricity": 0.00011682,
        "meta_inclination": 53.157,
        "meta_ra_of_asc_node": 29.4409,
        "meta_arg_of_pericenter": 75.9857,
        "meta_mean_anomaly": 190.6165,
        "meta_ephemeris_type": 0,
        "meta_classification_type": "U",
        "meta_norad_cat_id": 66900,
        "meta_element_set_no": 999,
        "meta_rev_at_epoch": 385,
        "meta_bstar": -0.0002441885,
        "meta_mean_motion_dot": -0.00036252,
        "meta_mean_motion_ddot": 0,
        "tle_line1": "1 66900U 25283Y   25355.58335648 -.00036252  00000+0 -24419-3 0  9995",
        "tle_line2": "2 66900  53.1570  29.4409 0001168  75.9857 190.6165 15.74198399  3859"
      },
      "geometry": {
        "type": "Point",
        "coordinates": [
          -164.1688792457235,
          15.269165576958002
        ]
      }
    },
    {
      "type": "Feature",
      "properties": {
        "norad_id": 66901,
        "name": "STARLINK-36043",
        "group": "last-30-days",
        "lat": 13.76266440264986,
        "lon": -162.94421817307605,
        "alt_km": 345.7838069553263,
        "timestamp": "2025-12-21T22:41:40.166505+00:00",
        "meta_object_name": "STARLINK-36043",
        "meta_object_id": "2025-283Z",
        "meta_epoch": "2025-12-21T14:00:01.999872",
        "meta_mean_motion": 15.74194728,
        "meta_eccentricity": 0.00011231,
        "meta_inclination": 53.1571,
        "meta_ra_of_asc_node": 29.4367,
        "meta_arg_of_pericenter": 82.7522,
        "meta_mean_anomaly": 185.7695,
        "meta_ephemeris_type": 0,
        "meta_classification_type": "U",
        "meta_norad_cat_id": 66901,
        "meta_element_set_no": 999,
        "meta_rev_at_epoch": 385,
        "meta_bstar": -0.00018310102,
        "meta_mean_motion_dot": -0.00027364,
        "meta_mean_motion_ddot": 0,
        "tle_line1": "1 66901U 25283Z   25355.58335648 -.00027364  00000+0 -18310-3 0  9993",
        "tle_line2": "2 66901  53.1571  29.4367 0001123  82.7522 185.7695 15.74194728  3855"
      },
      "geometry": {
        "type": "Point",
        "coordinates": [
          -162.94421817307605,
          13.76266440264986
        ]
      }
    },
    {
      "type": "Feature",
      "properties": {
        "norad_id": 66902,
        "name": "STARLINK-35983",
        "group": "last-30-days",
        "lat": 12.253860128960294,
        "lon": -161.73782975037605,
        "alt_km": 345.79547562575226,
        "timestamp": "2025-12-21T22:41:40.166517+00:00",
        "meta_object_name": "STARLINK-35983",
        "meta_object_id": "2025-283AA",
        "meta_epoch": "2025-12-21T14:00:01.999872",
        "meta_mean_motion": 15.74171489,
        "meta_eccentricity": 0.00011052,
        "meta_inclination": 53.1573,
        "meta_ra_of_asc_node": 29.4329,
        "meta_arg_of_pericenter": 98.7419,
        "meta_mean_anomaly": 171.6996,
        "meta_ephemeris_type": 0,
        "meta_classification_type": "U",
        "meta_norad_cat_id": 66902,
        "meta_element_set_no": 999,
        "meta_rev_at_epoch": 385,
        "meta_bstar": 0.00018472658,
        "meta_mean_motion_dot": 0.00026489,
        "meta_mean_motion_ddot": 0,
        "tle_line1": "1 66902U 25283AA  25355.58335648  .00026489  00000+0  18473-3 0  9999",
        "tle_line2": "2 66902  53.1573  29.4329 0001105  98.7419 171.6996 15.74171489  3855"
      },
      "geometry": {
        "type": "Point",
        "coordinates": [
          -161.73782975037605,
          12.253860128960294
        ]
      }
    },
    {
      "type": "Feature",
      "properties": {
        "norad_id": 66903,
        "name": "STARLINK-36077",
        "group": "last-30-days",
        "lat": 10.733092775701762,
        "lon": -160.54036250536512,
        "alt_km": 346.0511938572463,
        "timestamp": "2025-12-21T22:41:40.166527+00:00",
        "meta_object_name": "STARLINK-36077",
        "meta_object_id": "2025-283AB",
        "meta_epoch": "2025-12-21T14:00:01.999872",
        "meta_mean_motion": 15.74176146,
        "meta_eccentricity": 0.00012347,
        "meta_inclination": 53.157,
        "meta_ra_of_asc_node": 29.4289,
        "meta_arg_of_pericenter": 95.3817,
        "meta_mean_anomaly": 176.9756,
        "meta_ephemeris_type": 0,
        "meta_classification_type": "U",
        "meta_norad_cat_id": 66903,
        "meta_element_set_no": 999,
        "meta_rev_at_epoch": 385,
        "meta_bstar": 0.00016119354,
        "meta_mean_motion_dot": 0.00023029,
        "meta_mean_motion_ddot": 0,
        "tle_line1": "1 66903U 25283AB  25355.58335648  .00023029  00000+0  16119-3 0  9992",
        "tle_line2": "2 66903  53.1570  29.4289 0001234  95.3817 176.9756 15.74176146  3853"
      },
      "geometry": {
        "type": "Point",
        "coordinates": [
          -160.54036250536512,
          10.733092775701762
        ]
      }
    },
    {
      "type": "Feature",
      "properties": {
        "norad_id": 66904,
        "name": "STARLINK-36059",
        "group": "last-30-days",
        "lat": 9.210415226778178,
        "lon": -159.35704244618594,
        "alt_km": 346.53208185942094,
        "timestamp": "2025-12-21T22:41:40.166537+00:00",
        "meta_object_name": "STARLINK-36059",
        "meta_object_id": "2025-283AC",
        "meta_epoch": "2025-12-21T14:00:01.999872",
        "meta_mean_motion": 15.74185716,
        "meta_eccentricity": 0.00011222,
        "meta_inclination": 53.1575,
        "meta_ra_of_asc_node": 29.4246,
        "meta_arg_of_pericenter": 79.5055,
        "meta_mean_anomaly": 194.765,
        "meta_ephemeris_type": 0,
        "meta_classification_type": "U",
        "meta_norad_cat_id": 66904,
        "meta_element_set_no": 999,
        "meta_rev_at_epoch": 385,
        "meta_bstar": 7.1837744e-05,
        "meta_mean_motion_dot": 9.902e-05,
        "meta_mean_motion_ddot": 0,
        "tle_line1": "1 66904U 25283AC  25355.58335648  .00009902  00000+0  71838-4 0  9997",
        "tle_line2": "2 66904  53.1575  29.4246 0001122  79.5055 194.7650 15.74185716  3850"
      },
      "geometry": {
        "type": "Point",
        "coordinates": [
          -159.35704244618594,
          9.210415226778178
        ]
      }
    }
  ]
}